NORAD_CAT_ID,OBJECT_NAME,OBJECT_TYPE,EPOCH,MEAN_MOTION,ECCENTRICITY,INCLINATION,RA_OF_ASC_NODE,ARG_OF_PERICENTER,MEAN_ANOMALY,BSTAR,MEAN_MOTION_DOT,MEAN_MOTION_DDOT,TLE_LINE0,TLE_LINE1,TLE_LINE2,SEMIMAJOR_AXIS,PERIOD,APOGEE,PERIGEE,DECAYED
55637.0,STARLINK-5062,PAYLOAD,2023-08-04 19:09:34,14.98325161,0.0002841,69.9998,54.5367,265.5702,94.5133,-6.7129e-05,-8.94e-06,0.0,0 STARLINK-5062,1 55637U 23021K   23216.79831026 -.00000894  00000-0 -67129-4 0  9996,2 55637  69.9998  54.5367 0002841 265.5702  94.5133 14.98325161 26508,6950.208,96.107,574.047,570.098,0.0
55637.0,STARLINK-5062,PAYLOAD,2023-08-05 17:35:25,14.98335546,0.0002955,69.9998,52.1795,264.5544,95.5278,5.4716e-05,5.6e-06,0.0,0 STARLINK-5062,1 55637U 23021K   23217.73293935  .00000560  00000-0  54716-4 0  9998,2 55637  69.9998  52.1795 0002955 264.5544  95.5278 14.98335546 26640,6950.176,96.107,574.095,569.987,0.0
55637.0,STARLINK-5062,PAYLOAD,2023-08-06 06:24:31,14.98323992,0.0002363,70.0013,50.8327,276.4444,83.6446,-5.1481e-05,-7.07e-06,0.0,0 STARLINK-5062,1 55637U 23021K   23218.26703104 -.00000707  00000-0 -51481-4 0  9992,2 55637  70.0013  50.8327 0002363 276.4444  83.6446 14.98323992 26727,6950.211,96.107,573.719,570.434,0.0
55637.0,STARLINK-5062,PAYLOAD,2023-08-07 06:26:32,14.98318939,0.0003158,69.9999,48.3074,260.1855,99.8948,6.1223e-05,6.37e-06,0.0,0 STARLINK-5062,1 55637U 23021K   23219.26843337  .00000637  00000-0  61223-4 0  9991,2 55637  69.9999  48.3074 0003158 260.1855  99.8948 14.98318939 26874,6950.227,96.108,574.287,569.897,0.0
55637.0,STARLINK-5062,PAYLOAD,2023-08-07 19:15:36,14.98332925,0.0003004,69.9996,46.9602,264.2205,95.8611,-5.0391e-05,-6.94e-06,0.0,0 STARLINK-5062,1 55637U 23021K   23219.80250752 -.00000694  00000-0 -50391-4 0  9993,2 55637  69.9996  46.9602 0003004 264.2205  95.8611 14.98332925 26959,6950.184,96.107,574.137,569.961,0.0
55637.0,STARLINK-5062,PAYLOAD,2023-08-08 22:29:53,14.98334445,0.0003272,69.9996,44.0987,266.8515,93.227,0.00016429,1.868e-05,0.0,0 STARLINK-5062,1 55637U 23021K   23220.93741923  .00001868  00000-0  16429-3 0  9999,2 55637  69.9996  44.0987 0003272 266.8515  93.2270 14.98334445 27125,6950.179,96.107,574.318,569.77,0.0
55637.0,STARLINK-5062,PAYLOAD,2023-08-09 14:31:14,14.98330964,0.0003153,69.9997,42.4154,266.7043,93.3755,-7.4182e-06,-1.82e-06,0.0,0 STARLINK-5062,1 55637U 23021K   23221.60502576 -.00000182  00000-0 -74182-5 0  9995,2 55637  69.9997  42.4154 0003153 266.7043  93.3755 14.98330964 27229,6950.19,96.107,574.246,569.864,0.0
55637.0,STARLINK-5062,PAYLOAD,2023-08-10 17:45:31,14.98333541,0.0003041,70.0002,39.5543,266.1787,93.9025,-7.4162e-05,-9.78e-06,0.0,0 STARLINK-5062,1 55637U 23021K   23222.73994400 -.00000978  00000-0 -74162-4 0  9991,2 55637  70.0002  39.5543 0003041 266.1787  93.9025 14.98333541 27391,6950.182,96.107,574.16,569.933,0.0
55637.0,STARLINK-5062,PAYLOAD,2023-08-11 17:47:32,14.98330084,0.0003173,70.0003,37.0297,269.6729,90.4067,3.001e-06,-5.7e-07,0.0,0 STARLINK-5062,1 55637U 23021K   23223.74134280 -.00000057  00000-0  30010-5 0  9997,2 55637  70.0003  37.0297 0003173 269.6729  90.4067 14.98330084 27545,6950.193,96.107,574.263,569.852,0.0
55637.0,STARLINK-5062,PAYLOAD,2023-08-12 17:49:33,14.98313672,0.000309,70.0002,34.5036,267.7513,92.3292,0.00032605,3.798e-05,0.0,0 STARLINK-5062,1 55637U 23021K   23224.74274438  .00003798  00000-0  32605-3 0  9992,2 55637  70.0002  34.5036 0003090 267.7513  92.3292 14.98313672 27696,6950.243,96.108,574.256,569.961,0.0
55637.0,STARLINK-5062,PAYLOAD,2023-08-12 22:37:57,14.98331417,0.0003015,70.0002,33.998,263.129,96.9526,8.658e-06,1e-07,0.0,0 STARLINK-5062,1 55637U 23021K   23224.94302110  .00000010  00000-0  86580-5 0  9990,2 55637  70.0002  33.9980 0003015 263.1290  96.9526 14.98331417 27727,6950.189,96.107,574.149,569.958,0.0
55637.0,STARLINK-5062,PAYLOAD,2023-08-14 05:04:30,14.98328045,0.0003317,70.0004,30.8004,261.1266,98.9517,-1.8804e-06,-1.15e-06,0.0,0 STARLINK-5062,1 55637U 23021K   23226.21146217 -.00000115  00000-0 -18804-5 0  9998,2 55637  70.0004  30.8004 0003317 261.1266  98.9517 14.98328045 27914,6950.199,96.107,574.369,569.759,0.0
55637.0,STARLINK-5062,PAYLOAD,2023-08-15 11:31:03,14.98329834,0.0003232,70.0005,27.6026,269.9325,90.1463,1.4026e-05,7.4e-07,0.0,0 STARLINK-5062,1 55637U 23021K   23227.47990084  .00000074  00000-0  14026-4 0  9999,2 55637  70.0005  27.6026 0003232 269.9325  90.1463 14.98329834 28104,6950.193,96.107,574.305,569.812,0.0
55637.0,STARLINK-5062,PAYLOAD,2023-08-16 11:33:04,14.98327746,0.0003124,70.0005,25.0777,271.45,88.6301,-2.6582e-05,-4.1e-06,0.0,0 STARLINK-5062,1 55637U 23021K   23228.48130275 -.00000410  00000-0 -26582-4 0  9995,2 55637  70.0005  25.0777 0003124 271.4500  88.6301 14.98327746 28251,6950.2,96.107,574.236,569.894,0.0
55637.0,STARLINK-5062,PAYLOAD,2023-08-17 16:23:29,14.98328426,0.0003009,69.9985,22.0484,269.0224,91.059,-3.877e-05,-5.56e-06,0.0,0 STARLINK-5062,1 55637U 23021K   23229.68298258 -.00000556  00000-0 -38770-4 0  9997,2 55637  69.9985  22.0484 0003009 269.0224  91.0590 14.98328426 28439,6950.198,96.107,574.154,569.971,0.0
55637.0,STARLINK-5062,PAYLOAD,2023-08-18 16:25:30,14.98333293,0.0003335,69.9999,19.5228,268.6538,91.4239,1.1788e-05,4.8e-07,0.0,0 STARLINK-5062,1 55637U 23021K   23230.68437841  .00000048  00000-0  11788-4 0  9996,2 55637  69.9999  19.5228 0003335 268.6538  91.4239 14.98333293 28584,6950.183,96.107,574.366,569.73,0.0
55637.0,STARLINK-5062,PAYLOAD,2023-08-20 11:41:07,14.98329876,0.0003275,70.0002,14.9776,268.4003,91.6781,-1.8079e-05,-3.09e-06,0.0,0 STARLINK-5062,1 55637U 23021K   23232.48689761 -.00000309  00000-0 -18079-4 0  9998,2 55637  70.0002  14.9776 0003275 268.4003  91.6781 14.98329876 28853,6950.193,96.107,574.334,569.782,0.0
55637.0,STARLINK-5062,PAYLOAD,2023-08-21 11:43:08,14.98329555,0.000324,70.0016,12.4539,270.692,89.3868,-5.0808e-05,-6.99e-06,0.0,0 STARLINK-5062,1 55637U 23021K   23233.48829822 -.00000699  00000-0 -50808-4 0  9991,2 55637  70.0016  12.4539 0003240 270.6920  89.3868 14.98329555 29005,6950.194,96.107,574.311,569.807,0.0
55637.0,STARLINK-5062,PAYLOAD,2023-08-22 11:45:09,14.98338929,0.0003152,70.0019,9.9297,270.2208,89.8589,-0.00022185,-2.74e-05,0.0,0 STARLINK-5062,1 55637U 23021K   23234.48969832 -.00002740  00000-0 -22185-3 0  9993,2 55637  70.0019   9.9297 0003152 270.2208  89.8589 14.98338929 29153,6950.165,96.106,574.221,569.84,0.0
55637.0,STARLINK-5062,PAYLOAD,2023-08-23 11:47:10,14.98329749,0.0003029,70.0021,7.405,268.0466,92.0346,3.0937e-05,2.76e-06,0.0,0 STARLINK-5062,1 55637U 23021K   23235.49109775  .00000276  00000-0  30937-4 0  9992,2 55637  70.0021   7.4050 0003029 268.0466  92.0346 14.98329749 29304,6950.194,96.107,574.164,569.953,0.0
55637.0,STARLINK-5062,PAYLOAD,2023-08-24 11:49:11,14.98327619,0.0003172,70.0021,4.8808,266.077,94.0027,1.7192e-05,1.12e-06,0.0,0 STARLINK-5062,1 55637U 23021K   23236.49249892  .00000112  00000-0  17192-4 0  9995,2 55637  70.0021   4.8808 0003172 266.0770  94.0027 14.98327619 29459,6950.2,96.107,574.27,569.861,0.0
55637.0,STARLINK-5062,PAYLOAD,2023-08-25 10:15:04,14.98334636,0.0003265,70.0003,2.5186,274.221,85.8576,-8.2408e-06,-1.91e-06,0.0,0 STARLINK-5062,1 55637U 23021K   23237.42713423 -.00000191  00000-0 -82408-5 0  9997,2 55637  70.0003   2.5186 0003265 274.2210  85.8576 14.98334636 29595,6950.179,96.107,574.313,569.774,0.0
55637.0,STARLINK-5062,PAYLOAD,2023-08-25 13:27:20,14.98336412,0.0003283,70.0023,2.1891,265.7906,94.2877,-4.1271e-05,-5.86e-06,0.0,0 STARLINK-5062,1 55637U 23021K   23237.56065382 -.00000586  00000-0 -41271-4 0  9996,2 55637  70.0023   2.1891 0003283 265.7906  94.2877 14.98336412 29911,6950.173,96.107,574.32,569.756,0.0
55637.0,STARLINK-5062,PAYLOAD,2023-08-25 19:51:52,14.9833503,0.0003163,70.0021,1.515,263.5778,96.5021,2.3546e-05,1.88e-06,0.0,0 STARLINK-5062,1 55637U 23021K   23237.82769186  .00000188  00000-0  23546-4 0  9999,2 55637  70.0021   1.5150 0003163 263.5778  96.5021 14.98335030 29955,6950.177,96.107,574.241,569.844,0.0
55637.0,STARLINK-5062,PAYLOAD,2023-08-26 10:17:05,14.98327333,0.0003003,70.0025,0.0015,260.6819,99.4,-3.7218e-05,-5.37e-06,0.0,0 STARLINK-5062,1 55637U 23021K   23238.42853822 -.00000537  00000-0 -37218-4 0  9998,2 55637  70.0025   0.0015 0003003 260.6819  99.4000 14.98327333 29743,6950.201,96.107,574.153,569.979,0.0
55637.0,STARLINK-5062,PAYLOAD,2023-08-26 11:53:13,14.98327105,0.0003007,70.0025,359.8331,260.7398,99.3421,-3.8832e-05,-5.56e-06,0.0,0 STARLINK-5062,1 55637U 23021K   23238.49529847 -.00000556  00000-0 -38832-4 0  9996,2 55637  70.0025 359.8331 0003007 260.7398  99.3421 14.98327105 30055,6950.202,96.107,574.157,569.977,0.0
55637.0,STARLINK-5062,PAYLOAD,2023-08-26 18:17:46,14.98326251,0.0003024,70.0024,359.1594,261.5064,98.5753,-4.6182e-05,-6.44e-06,0.0,0 STARLINK-5062,1 55637U 23021K   23238.76233960 -.00000644  00000-0 -46182-4 0  9999,2 55637  70.0024 359.1594 0003024 261.5064  98.5753 14.98326251 30090,6950.204,96.107,574.171,569.968,0.0
55637.0,STARLINK-5062,PAYLOAD,2023-08-27 10:19:06,14.98333025,0.0003094,70.0021,357.4741,269.4081,90.6723,-5.1219e-07,-9.9e-07,0.0,0 STARLINK-5062,1 55637U 23021K   23239.42993416 -.00000099  00000-0 -51219-6 0  9995,2 55637  70.0021 357.4741 0003094 269.4081  90.6723 14.98333025 29898,6950.184,96.107,574.199,569.898,0.0
55637.0,STARLINK-5062,PAYLOAD,2023-08-27 18:19:46,14.98334703,0.0003094,70.0021,356.6327,269.2632,90.8172,1.9436e-05,1.39e-06,0.0,0 STARLINK-5062,1 55637U 23021K   23239.76373190  .00000139  00000-0  19436-4 0  9999,2 55637  70.0021 356.6327 0003094 269.2632  90.8172 14.98334703 30244,6950.178,96.107,574.194,569.893,0.0
55637.0,STARLINK-5062,PAYLOAD,2023-08-28 08:44:59,14.98325482,0.000304,70.0022,355.118,269.5207,90.5604,1.9773e-05,1.43e-06,0.0,0 STARLINK-5062,1 55637U 23021K   23240.36457738  .00000143  00000-0  19773-4 0  9997,2 55637  70.0022 355.1180 0003040 269.5207  90.5604 14.98325482 30036,6950.207,96.107,574.185,569.959,0.0
